start=new Date('2023-03-04T00:00:00.000Z').valueOf();
sats=[{"ARG_OF_PERICENTER":"81.9283","ELEMENT_SET_NO":"999","MEAN_MOTION":"15.08880187","BSTAR":"0.00160880000000","MEAN_ELEMENT_THEORY":"SGP4","MEAN_MOTION_DOT":"0.00025437","CENTER_NAME":"EARTH","OBJECT_ID":"2022-083S","SITE":"AFETR","EPHEMERIS_TYPE":"0","REF_FRAME":"TEME","LAUNCH_DATE":"2022-07-17","PERIOD":"95.435","APOAPSIS":"540.898","PERIAPSIS":"538.347","GP_ID":"227403660","EPOCH":"2023-03-03T08:06:25.672896","SEMIMAJOR_AXIS":"6917.758","NORAD_CAT_ID":"53148","TLE_LINE1":"1 53148U 22083S   23062.33779714  .00025437  00000-0  16088-2 0  9996","INCLINATION":"53.2165","DECAY_DATE":null,"ECCENTRICITY":"0.00018440","CLASSIFICATION_TYPE":"U","MEAN_MOTION_DDOT":"0.0000000000000","OBJECT_TYPE":"PAYLOAD","TIME_SYSTEM":"UTC","REV_AT_EPOCH":"3480","FILE":"3850163","OBJECT_NAME":"STARLINK-4066","RCS_SIZE":"LARGE","TLE_LINE2":"2 53148  53.2165  82.7823 0001844  81.9283 278.1918 15.08880187 34800","MEAN_ANOMALY":"278.1918","RA_OF_ASC_NODE":"82.7823","COUNTRY_CODE":"US"},{"OBJECT_ID":"2022-083T","CENTER_NAME":"EARTH","MEAN_MOTION_DOT":"0.00004323","MEAN_ELEMENT_THEORY":"SGP4","BSTAR":"0.00028947000000","SITE":"AFETR","ELEMENT_SET_NO":"999","ARG_OF_PERICENTER":"92.3072","MEAN_MOTION":"15.08851819","PERIAPSIS":"538.836","NORAD_CAT_ID":"53149","SEMIMAJOR_AXIS":"6917.844","EPOCH":"2023-03-03T17:38:40.646688","GP_ID":"227435416","REF_FRAME":"TEME","EPHEMERIS_TYPE":"0","APOAPSIS":"540.582","PERIOD":"95.437","LAUNCH_DATE":"2022-07-17","MEAN_MOTION_DDOT":"0.0000000000000","CLASSIFICATION_TYPE":"U","TIME_SYSTEM":"UTC","OBJECT_TYPE":"PAYLOAD","ECCENTRICITY":"0.00012620","DECAY_DATE":null,"TLE_LINE1":"1 53149U 22083T   23062.73519267  .00004323  00000-0  28947-3 0  9995","INCLINATION":"53.2164","COUNTRY_CODE":"US","RA_OF_ASC_NODE":"70.9847","MEAN_ANOMALY":"267.8065","REV_AT_EPOCH":"3500","RCS_SIZE":"LARGE","TLE_LINE2":"2 53149  53.2164  70.9847 0001262  92.3072 267.8065 15.08851819 35002","FILE":"3850400","OBJECT_NAME":"STARLINK-4021"},{"INCLINATION":"53.2195","TLE_LINE1":"1 53150U 22083U   23062.70945234  .00011007  00000-0  70855-3 0  9993","DECAY_DATE":null,"ECCENTRICITY":"0.00017570","OBJECT_TYPE":"PAYLOAD","TIME_SYSTEM":"UTC","CLASSIFICATION_TYPE":"U","MEAN_MOTION_DDOT":"0.0000000000000","FILE":"3850400","OBJECT_NAME":"STARLINK-4038","RCS_SIZE":"LARGE","TLE_LINE2":"2 53150  53.2195  71.0987 0001757 108.9436 251.1747 15.08841905 34997","REV_AT_EPOCH":"3499","MEAN_ANOMALY":"251.1747","RA_OF_ASC_NODE":"71.0987","COUNTRY_CODE":"US","MEAN_MOTION":"15.08841905","ARG_OF_PERICENTER":"108.9436","ELEMENT_SET_NO":"999","SITE":"AFETR","MEAN_ELEMENT_THEORY":"SGP4","BSTAR":"0.00070855000000","MEAN_MOTION_DOT":"0.00011007","CENTER_NAME":"EARTH","OBJECT_ID":"2022-083U","LAUNCH_DATE":"2022-07-17","PERIOD":"95.437","APOAPSIS":"540.955","EPHEMERIS_TYPE":"0","REF_FRAME":"TEME","GP_ID":"227435167","EPOCH":"2023-03-03T17:01:36.682176","SEMIMAJOR_AXIS":"6917.875","NORAD_CAT_ID":"53150","PERIAPSIS":"538.524"},{"MEAN_MOTION":"15.08885951","ARG_OF_PERICENTER":"103.2576","ELEMENT_SET_NO":"999","SITE":"AFETR","BSTAR":"0.00196690000000","MEAN_ELEMENT_THEORY":"SGP4","MEAN_MOTION_DOT":"0.00031194","CENTER_NAME":"EARTH","OBJECT_ID":"2022-083V","LAUNCH_DATE":"2022-07-17","PERIOD":"95.435","APOAPSIS":"540.590","EPHEMERIS_TYPE":"0","REF_FRAME":"TEME","GP_ID":"227403924","EPOCH":"2023-03-03T11:59:31.809408","SEMIMAJOR_AXIS":"6917.740","NORAD_CAT_ID":"53151","PERIAPSIS":"538.620","TLE_LINE1":"1 53151U 22083V   23062.49967372  .00031194  00000-0  19669-2 0  9991","INCLINATION":"53.2172","DECAY_DATE":null,"ECCENTRICITY":"0.00014240","OBJECT_TYPE":"PAYLOAD","TIME_SYSTEM":"UTC","CLASSIFICATION_TYPE":"U","MEAN_MOTION_DDOT":"0.0000000000000","OBJECT_NAME":"STARLINK-4040","FILE":"3850163","RCS_SIZE":"LARGE","TLE_LINE2":"2 53151  53.2172  72.0403 0001424 103.2576 256.8575 15.08885951 34968","REV_AT_EPOCH":"3496","MEAN_ANOMALY":"256.8575","RA_OF_ASC_NODE":"72.0403","COUNTRY_CODE":"US"},{"ECCENTRICITY":"0.00016980","TLE_LINE1":"1 53152U 22083W   23062.30831535  .00032252  00000-0  20329-2 0  9994","INCLINATION":"53.2178","DECAY_DATE":null,"CLASSIFICATION_TYPE":"U","MEAN_MOTION_DDOT":"0.0000000000000","OBJECT_TYPE":"PAYLOAD","TIME_SYSTEM":"UTC","REV_AT_EPOCH":"3493","TLE_LINE2":"2 53152  53.2178  72.8980 0001698 101.2020 258.9163 15.08882965 34933","RCS_SIZE":"LARGE","OBJECT_NAME":"STARLINK-4045","FILE":"3850163","COUNTRY_CODE":"US","MEAN_ANOMALY":"258.9163","RA_OF_ASC_NODE":"72.8980","ELEMENT_SET_NO":"999","ARG_OF_PERICENTER":"101.2020","MEAN_MOTION":"15.08882965","CENTER_NAME":"EARTH","OBJECT_ID":"2022-083W","MEAN_ELEMENT_THEORY":"SGP4","BSTAR":"0.00203290000000","MEAN_MOTION_DOT":"0.00032252","SITE":"AFETR","REF_FRAME":"TEME","EPHEMERIS_TYPE":"0","APOAPSIS":"540.789","PERIOD":"95.435","LAUNCH_DATE":"2022-07-17","PERIAPSIS":"538.439","SEMIMAJOR_AXIS":"6917.749","NORAD_CAT_ID":"53152","GP_ID":"227404160","EPOCH":"2023-03-03T07:23:58.446240"},{"DECAY_DATE":null,"INCLINATION":"53.2164","TLE_LINE1":"1 53153U 22083X   23062.29727447  .00028978  00000-0  18292-2 0  9995","ECCENTRICITY":"0.00013500","TIME_SYSTEM":"UTC","OBJECT_TYPE":"PAYLOAD","MEAN_MOTION_DDOT":"0.0000000000000","CLASSIFICATION_TYPE":"U","FILE":"3850163","OBJECT_NAME":"STARLINK-4098","TLE_LINE2":"2 53153  53.2164  72.9496 0001350  83.2119 276.9027 15.08882792 34932","RCS_SIZE":"LARGE","REV_AT_EPOCH":"3493","RA_OF_ASC_NODE":"72.9496","MEAN_ANOMALY":"276.9027","COUNTRY_CODE":"US","MEAN_MOTION":"15.08882792","ARG_OF_PERICENTER":"83.2119","ELEMENT_SET_NO":"999","SITE":"AFETR","MEAN_MOTION_DOT":"0.00028978","BSTAR":"0.00182920000000","MEAN_ELEMENT_THEORY":"SGP4","OBJECT_ID":"2022-083X","CENTER_NAME":"EARTH","LAUNCH_DATE":"2022-07-17","PERIOD":"95.435","APOAPSIS":"540.548","EPHEMERIS_TYPE":"0","REF_FRAME":"TEME","EPOCH":"2023-03-03T07:08:04.514208","GP_ID":"227402935","NORAD_CAT_ID":"53153","SEMIMAJOR_AXIS":"6917.750","PERIAPSIS":"538.681"},{"ELEMENT_SET_NO":"999","ARG_OF_PERICENTER":"73.7568","MEAN_MOTION":"15.08895350","OBJECT_ID":"2022-083Y","CENTER_NAME":"EARTH","MEAN_MOTION_DOT":"0.00024754","MEAN_ELEMENT_THEORY":"SGP4","BSTAR":"0.00156560000000","SITE":"AFETR","REF_FRAME":"TEME","EPHEMERIS_TYPE":"0","PERIOD":"95.434","APOAPSIS":"540.745","LAUNCH_DATE":"2022-07-17","PERIAPSIS":"538.408","NORAD_CAT_ID":"53154","SEMIMAJOR_AXIS":"6917.711","EPOCH":"2023-03-03T10:29:26.569248","GP_ID":"227403184","ECCENTRICITY":"0.00016890","DECAY_DATE":null,"INCLINATION":"53.2181","TLE_LINE1":"1 53154U 22083Y   23062.43711307  .00024754  00000-0  15656-2 0  9999","MEAN_MOTION_DDOT":"0.0000000000000","CLASSIFICATION_TYPE":"U","TIME_SYSTEM":"UTC","OBJECT_TYPE":"PAYLOAD","REV_AT_EPOCH":"3495","RCS_SIZE":"LARGE","TLE_LINE2":"2 53154  53.2181  72.3259 0001689  73.7568 286.3609 15.08895350 34957","OBJECT_NAME":"STARLINK-4077","FILE":"3850163","COUNTRY_CODE":"US","RA_OF_ASC_NODE":"72.3259","MEAN_ANOMALY":"286.3609"},{"APOAPSIS":"540.828","PERIOD":"95.436","LAUNCH_DATE":"2022-07-17","REF_FRAME":"TEME","EPHEMERIS_TYPE":"0","SEMIMAJOR_AXIS":"6917.805","NORAD_CAT_ID":"53155","GP_ID":"227434415","EPOCH":"2023-03-03T18:05:10.670208","PERIAPSIS":"538.512","MEAN_MOTION":"15.08864762","ELEMENT_SET_NO":"999","ARG_OF_PERICENTER":"88.9381","SITE":"AFETR","CENTER_NAME":"EARTH","OBJECT_ID":"2022-083Z","MEAN_ELEMENT_THEORY":"SGP4","BSTAR":"0.00163040000000","MEAN_MOTION_DOT":"0.00025773","RCS_SIZE":"LARGE","TLE_LINE2":"2 53155  53.2172  70.9058 0001674  88.9381 271.1803 15.08864762 35642","FILE":"3850400","OBJECT_NAME":"STARLINK-4088","REV_AT_EPOCH":"3564","COUNTRY_CODE":"US","MEAN_ANOMALY":"271.1803","RA_OF_ASC_NODE":"70.9058","ECCENTRICITY":"0.00016740","INCLINATION":"53.2172","TLE_LINE1":"1 53155U 22083Z   23062.75359572  .00025773  00000-0  16304-2 0  9990","DECAY_DATE":null,"OBJECT_TYPE":"PAYLOAD","TIME_SYSTEM":"UTC","CLASSIFICATION_TYPE":"U","MEAN_MOTION_DDOT":"0.0000000000000"},{"PERIAPSIS":"538.773","EPOCH":"2023-03-03T18:06:32.997312","GP_ID":"227434665","NORAD_CAT_ID":"53156","SEMIMAJOR_AXIS":"6917.778","EPHEMERIS_TYPE":"0","REF_FRAME":"TEME","LAUNCH_DATE":"2022-07-17","PERIOD":"95.435","APOAPSIS":"540.512","MEAN_MOTION_DOT":"0.00010417","BSTAR":"0.00067100000000","MEAN_ELEMENT_THEORY":"SGP4","OBJECT_ID":"2022-083AA","CENTER_NAME":"EARTH","SITE":"AFETR","ARG_OF_PERICENTER":"90.4926","ELEMENT_SET_NO":"999","MEAN_MOTION":"15.08873628","RA_OF_ASC_NODE":"70.9012","MEAN_ANOMALY":"269.6211","COUNTRY_CODE":"US","REV_AT_EPOCH":"3500","FILE":"3850400","OBJECT_NAME":"STARLINK-4087","RCS_SIZE":"LARGE","TLE_LINE2":"2 53156  53.2171  70.9012 0001257  90.4926 269.6211 15.08873628 35008","MEAN_MOTION_DDOT":"0.0000000000000","CLASSIFICATION_TYPE":"U","TIME_SYSTEM":"UTC","OBJECT_TYPE":"PAYLOAD","DECAY_DATE":null,"TLE_LINE1":"1 53156U 22083AA  23062.75454858  .00010417  00000-0  67100-3 0  9994","INCLINATION":"53.2171","ECCENTRICITY":"0.00012570"},{"NORAD_CAT_ID":"53157","SEMIMAJOR_AXIS":"6917.753","EPOCH":"2023-03-03T17:54:34.651296","GP_ID":"227435417","PERIAPSIS":"538.937","PERIOD":"95.435","APOAPSIS":"540.299","LAUNCH_DATE":"2022-07-17","REF_FRAME":"TEME","EPHEMERIS_TYPE":"0","SITE":"AFETR","OBJECT_ID":"2022-083AB","CENTER_NAME":"EARTH","MEAN_MOTION_DOT":"0.00021887","BSTAR":"0.00138740000000","MEAN_ELEMENT_THEORY":"SGP4","MEAN_MOTION":"15.08881663","ELEMENT_SET_NO":"999","ARG_OF_PERICENTER":"92.1666","COUNTRY_CODE":"US","RA_OF_ASC_NODE":"70.9400","MEAN_ANOMALY":"267.9439","RCS_SIZE":"LARGE","TLE_LINE2":"2 53157  53.2161  70.9400 0000985  92.1666 267.9439 15.08881663 35007","OBJECT_NAME":"STARLINK-4093","FILE":"3850400","REV_AT_EPOCH":"3500","TIME_SYSTEM":"UTC","OBJECT_TYPE":"PAYLOAD","MEAN_MOTION_DDOT":"0.0000000000000","CLASSIFICATION_TYPE":"U","ECCENTRICITY":"0.00009850","DECAY_DATE":null,"INCLINATION":"53.2161","TLE_LINE1":"1 53157U 22083AB  23062.74623439  .00021887  00000-0  13874-2 0  9998"}];
